start=new Date('2021-12-18T00:00:00.000Z').valueOf();
sats=[{"OBJECT_NAME":"STARLINK-2386","TLE_LINE2":"2 47805  53.0561 318.3851 0001959  65.4230 294.6963 15.06389830 44313","SEMIMAJOR_AXIS":"6925.380","FILE":"3243045","OBJECT_TYPE":"PAYLOAD","GP_ID":"191903415","RA_OF_ASC_NODE":"318.3851","ARG_OF_PERICENTER":"65.4230","RCS_SIZE":"MEDIUM","OBJECT_ID":"2021-018U","CLASSIFICATION_TYPE":"U","MEAN_ELEMENT_THEORY":"SGP4","PERIAPSIS":"545.888","MEAN_ANOMALY":"294.6963","CENTER_NAME":"EARTH","NORAD_CAT_ID":"47805","REV_AT_EPOCH":"4431","APOAPSIS":"548.601","COUNTRY_CODE":"US","TLE_LINE1":"1 47805U 21018U   21351.69379390  .00000035  00000-0  21257-4 0  9993","EPOCH":"2021-12-17T16:39:03.792960","INCLINATION":"53.0561","MEAN_MOTION":"15.06389830","LAUNCH_DATE":"2021-03-11","TIME_SYSTEM":"UTC","MEAN_MOTION_DDOT":"0.0000000000000","MEAN_MOTION_DOT":"0.00000035","PERIOD":"95.593","BSTAR":"0.00002125700000","EPHEMERIS_TYPE":"0","ECCENTRICITY":"0.00019590","REF_FRAME":"TEME","ELEMENT_SET_NO":"999","DECAY_DATE":null,"SITE":"AFETR"},{"COUNTRY_CODE":"US","EPOCH":"2021-12-17T15:41:20.305536","TLE_LINE1":"1 47806U 21018V   21351.65370724  .00000474  00000-0  50726-4 0  9992","INCLINATION":"53.0552","APOAPSIS":"548.471","LAUNCH_DATE":"2021-03-11","TIME_SYSTEM":"UTC","MEAN_MOTION":"15.06393437","PERIOD":"95.593","BSTAR":"0.00005072600000","EPHEMERIS_TYPE":"0","MEAN_MOTION_DDOT":"0.0000000000000","MEAN_MOTION_DOT":"0.00000474","DECAY_DATE":null,"ELEMENT_SET_NO":"999","SITE":"AFETR","ECCENTRICITY":"0.00017870","REF_FRAME":"TEME","OBJECT_TYPE":"PAYLOAD","GP_ID":"191903666","OBJECT_NAME":"STARLINK-2387","TLE_LINE2":"2 47806  53.0552 333.5841 0001787  55.6830 304.4328 15.06393437 44153","FILE":"3243045","SEMIMAJOR_AXIS":"6925.369","ARG_OF_PERICENTER":"55.6830","RCS_SIZE":"LARGE","OBJECT_ID":"2021-018V","CLASSIFICATION_TYPE":"U","RA_OF_ASC_NODE":"333.5841","MEAN_ELEMENT_THEORY":"SGP4","PERIAPSIS":"545.996","CENTER_NAME":"EARTH","NORAD_CAT_ID":"47806","REV_AT_EPOCH":"4415","MEAN_ANOMALY":"304.4328"},{"REF_FRAME":"TEME","ECCENTRICITY":"0.00018100","SITE":"AFETR","DECAY_DATE":null,"ELEMENT_SET_NO":"999","MEAN_MOTION_DOT":"-0.00000088","MEAN_MOTION_DDOT":"0.0000000000000","BSTAR":"0.00001298900000","EPHEMERIS_TYPE":"0","PERIOD":"95.593","MEAN_MOTION":"15.06390828","TIME_SYSTEM":"UTC","LAUNCH_DATE":"2021-03-11","APOAPSIS":"548.495","INCLINATION":"53.0513","EPOCH":"2021-12-17T20:14:03.015744","TLE_LINE1":"1 47807U 21018W   21351.84309046 -.00000088  00000-0  12989-4 0  9994","COUNTRY_CODE":"US","MEAN_ANOMALY":"299.9325","REV_AT_EPOCH":"4446","NORAD_CAT_ID":"47807","CENTER_NAME":"EARTH","PERIAPSIS":"545.988","MEAN_ELEMENT_THEORY":"SGP4","RA_OF_ASC_NODE":"307.7234","CLASSIFICATION_TYPE":"U","OBJECT_ID":"2021-018W","ARG_OF_PERICENTER":"60.1844","RCS_SIZE":"LARGE","TLE_LINE2":"2 47807  53.0513 307.7234 0001810  60.1844 299.9325 15.06390828 44463","FILE":"3243045","SEMIMAJOR_AXIS":"6925.377","OBJECT_NAME":"STARLINK-2388","GP_ID":"191902414","OBJECT_TYPE":"PAYLOAD"},{"CLASSIFICATION_TYPE":"U","ARG_OF_PERICENTER":"62.9528","RCS_SIZE":"LARGE","OBJECT_ID":"2021-018X","RA_OF_ASC_NODE":"333.2021","GP_ID":"191902664","OBJECT_TYPE":"PAYLOAD","SEMIMAJOR_AXIS":"6925.376","TLE_LINE2":"2 47808  53.0566 333.2021 0001900  62.9528 297.1655 15.06391000 44165","FILE":"3243045","OBJECT_NAME":"STARLINK-2389","NORAD_CAT_ID":"47808","REV_AT_EPOCH":"4416","CENTER_NAME":"EARTH","MEAN_ANOMALY":"297.1655","PERIAPSIS":"545.925","MEAN_ELEMENT_THEORY":"SGP4","TIME_SYSTEM":"UTC","LAUNCH_DATE":"2021-03-11","MEAN_MOTION":"15.06391000","TLE_LINE1":"1 47808U 21018X   21351.73942957  .00000390  00000-0  45096-4 0  9997","EPOCH":"2021-12-17T17:44:46.714848","INCLINATION":"53.0566","COUNTRY_CODE":"US","APOAPSIS":"548.557","SITE":"AFETR","ELEMENT_SET_NO":"999","DECAY_DATE":null,"REF_FRAME":"TEME","ECCENTRICITY":"0.00019000","BSTAR":"0.00004509600000","EPHEMERIS_TYPE":"0","PERIOD":"95.593","MEAN_MOTION_DDOT":"0.0000000000000","MEAN_MOTION_DOT":"0.00000390"},{"APOAPSIS":"548.565","COUNTRY_CODE":"US","INCLINATION":"53.0562","EPOCH":"2021-12-17T16:16:32.480544","TLE_LINE1":"1 47809U 21018Y   21351.67815371  .00000434  00000-0  48059-4 0  9991","MEAN_MOTION":"15.06389197","LAUNCH_DATE":"2021-03-11","TIME_SYSTEM":"UTC","MEAN_MOTION_DOT":"0.00000434","MEAN_MOTION_DDOT":"0.0000000000000","PERIOD":"95.593","EPHEMERIS_TYPE":"0","BSTAR":"0.00004805900000","ECCENTRICITY":"0.00019030","REF_FRAME":"TEME","DECAY_DATE":null,"ELEMENT_SET_NO":"999","SITE":"AFETR","OBJECT_NAME":"STARLINK-2390","SEMIMAJOR_AXIS":"6925.382","TLE_LINE2":"2 47809  53.0562 338.4576 0001903  57.7199 302.3974 15.06389197 44081","FILE":"3243045","OBJECT_TYPE":"PAYLOAD","GP_ID":"191902916","RA_OF_ASC_NODE":"338.4576","OBJECT_ID":"2021-018Y","RCS_SIZE":"LARGE","ARG_OF_PERICENTER":"57.7199","CLASSIFICATION_TYPE":"U","MEAN_ELEMENT_THEORY":"SGP4","PERIAPSIS":"545.929","MEAN_ANOMALY":"302.3974","CENTER_NAME":"EARTH","REV_AT_EPOCH":"4408","NORAD_CAT_ID":"47809"},{"EPHEMERIS_TYPE":"0","BSTAR":"0.00012670000000","PERIOD":"95.592","MEAN_MOTION_DOT":"0.00001606","MEAN_MOTION_DDOT":"0.0000000000000","SITE":"AFETR","DECAY_DATE":null,"ELEMENT_SET_NO":"999","REF_FRAME":"TEME","ECCENTRICITY":"0.00018830","INCLINATION":"53.0559","TLE_LINE1":"1 47810U 21018Z   21351.76937022  .00001606  00000-0  12670-3 0  9992","EPOCH":"2021-12-17T18:27:53.587008","COUNTRY_CODE":"US","APOAPSIS":"548.516","TIME_SYSTEM":"UTC","LAUNCH_DATE":"2021-03-11","MEAN_MOTION":"15.06400576","PERIAPSIS":"545.908","MEAN_ELEMENT_THEORY":"SGP4","REV_AT_EPOCH":"4395","NORAD_CAT_ID":"47810","CENTER_NAME":"EARTH","MEAN_ANOMALY":"300.6944","GP_ID":"191903167","OBJECT_TYPE":"PAYLOAD","SEMIMAJOR_AXIS":"6925.347","TLE_LINE2":"2 47810  53.0559 348.0654 0001883  59.4231 300.6944 15.06400576 43954","FILE":"3243045","OBJECT_NAME":"STARLINK-2391","CLASSIFICATION_TYPE":"U","OBJECT_ID":"2021-018Z","RCS_SIZE":"LARGE","ARG_OF_PERICENTER":"59.4231","RA_OF_ASC_NODE":"348.0654"},{"COUNTRY_CODE":"US","INCLINATION":"53.0570","EPOCH":"2021-12-17T14:38:19.876992","TLE_LINE1":"1 47811U 21018AA  21351.60995228  .00000672  00000-0  64020-4 0  9997","APOAPSIS":"548.571","LAUNCH_DATE":"2021-03-11","TIME_SYSTEM":"UTC","MEAN_MOTION":"15.06401021","PERIOD":"95.592","EPHEMERIS_TYPE":"0","BSTAR":"0.00006402000000","MEAN_MOTION_DDOT":"0.0000000000000","MEAN_MOTION_DOT":"0.00000672","DECAY_DATE":null,"ELEMENT_SET_NO":"999","SITE":"AFETR","ECCENTRICITY":"0.00019650","REF_FRAME":"TEME","OBJECT_TYPE":"PAYLOAD","GP_ID":"191901915","OBJECT_NAME":"STARLINK-2392","SEMIMAJOR_AXIS":"6925.345","TLE_LINE2":"2 47811  53.0570 318.7709 0001965  62.5624 297.5565 15.06401021 44359","FILE":"3243045","OBJECT_ID":"2021-018AA","RCS_SIZE":"LARGE","ARG_OF_PERICENTER":"62.5624","CLASSIFICATION_TYPE":"U","RA_OF_ASC_NODE":"318.7709","MEAN_ELEMENT_THEORY":"SGP4","PERIAPSIS":"545.850","CENTER_NAME":"EARTH","REV_AT_EPOCH":"4435","NORAD_CAT_ID":"47811","MEAN_ANOMALY":"297.5565"},{"ECCENTRICITY":"0.00018540","REF_FRAME":"TEME","ELEMENT_SET_NO":"999","DECAY_DATE":null,"SITE":"AFETR","MEAN_MOTION_DDOT":"0.0000000000000","MEAN_MOTION_DOT":"0.00002088","PERIOD":"95.592","BSTAR":"0.00015902000000","EPHEMERIS_TYPE":"0","MEAN_MOTION":"15.06400264","LAUNCH_DATE":"2021-03-11","TIME_SYSTEM":"UTC","APOAPSIS":"548.497","COUNTRY_CODE":"US","EPOCH":"2021-12-17T17:08:16.681344","TLE_LINE1":"1 47812U 21018AB  21351.71408196  .00002088  00000-0  15902-3 0  9990","INCLINATION":"53.0573","MEAN_ANOMALY":"295.6258","CENTER_NAME":"EARTH","NORAD_CAT_ID":"47812","REV_AT_EPOCH":"4388","MEAN_ELEMENT_THEORY":"SGP4","PERIAPSIS":"545.929","RA_OF_ASC_NODE":"348.2951","ARG_OF_PERICENTER":"64.4922","RCS_SIZE":"LARGE","OBJECT_ID":"2021-018AB","CLASSIFICATION_TYPE":"U","OBJECT_NAME":"STARLINK-2393","TLE_LINE2":"2 47812  53.0573 348.2951 0001854  64.4922 295.6258 15.06400264 43882","FILE":"3243045","SEMIMAJOR_AXIS":"6925.348","OBJECT_TYPE":"PAYLOAD","GP_ID":"191902165"},{"RA_OF_ASC_NODE":"318.6779","RCS_SIZE":"LARGE","ARG_OF_PERICENTER":"63.5516","OBJECT_ID":"2021-018AC","CLASSIFICATION_TYPE":"U","OBJECT_NAME":"STARLINK-2394","FILE":"3243045","TLE_LINE2":"2 47813  53.0553 318.6779 0001972  63.5516 296.5675 15.06399354 44353","SEMIMAJOR_AXIS":"6925.351","OBJECT_TYPE":"PAYLOAD","GP_ID":"191903416","MEAN_ANOMALY":"296.5675","CENTER_NAME":"EARTH","NORAD_CAT_ID":"47813","REV_AT_EPOCH":"4435","MEAN_ELEMENT_THEORY":"SGP4","PERIAPSIS":"545.850","MEAN_MOTION":"15.06399354","LAUNCH_DATE":"2021-03-11","TIME_SYSTEM":"UTC","APOAPSIS":"548.581","COUNTRY_CODE":"US","EPOCH":"2021-12-17T15:10:10.735680","TLE_LINE1":"1 47813U 21018AC  21351.63206870  .00001867  00000-0  14421-3 0  9996","INCLINATION":"53.0553","ECCENTRICITY":"0.00019720","REF_FRAME":"TEME","ELEMENT_SET_NO":"999","DECAY_DATE":null,"SITE":"AFETR","MEAN_MOTION_DDOT":"0.0000000000000","MEAN_MOTION_DOT":"0.00001867","PERIOD":"95.592","BSTAR":"0.00014421000000","EPHEMERIS_TYPE":"0"},{"PERIAPSIS":"545.926","MEAN_ELEMENT_THEORY":"SGP4","NORAD_CAT_ID":"47814","REV_AT_EPOCH":"4405","CENTER_NAME":"EARTH","MEAN_ANOMALY":"302.2912","GP_ID":"191903667","OBJECT_TYPE":"PAYLOAD","TLE_LINE2":"2 47814  53.0561 339.4641 0001897  57.8261 302.2912 15.06391338 44051","FILE":"3243045","SEMIMAJOR_AXIS":"6925.375","OBJECT_NAME":"STARLINK-2395","CLASSIFICATION_TYPE":"U","ARG_OF_PERICENTER":"57.8261","RCS_SIZE":"MEDIUM","OBJECT_ID":"2021-018AD","RA_OF_ASC_NODE":"339.4641","EPHEMERIS_TYPE":"0","BSTAR":"0.00002162700000","PERIOD":"95.593","MEAN_MOTION_DDOT":"0.0000000000000","MEAN_MOTION_DOT":"0.00000040","SITE":"AFETR","ELEMENT_SET_NO":"999","DECAY_DATE":null,"REF_FRAME":"TEME","ECCENTRICITY":"0.00018970","TLE_LINE1":"1 47814U 21018AD  21351.45699260  .00000040  00000-0  21627-4 0  9995","EPOCH":"2021-12-17T10:58:04.160640","INCLINATION":"53.0561","COUNTRY_CODE":"US","APOAPSIS":"548.554","TIME_SYSTEM":"UTC","LAUNCH_DATE":"2021-03-11","MEAN_MOTION":"15.06391338"}];
